COSMOS 2582             
1 62903U 25026B   26068.82119530  .00001996  00000+0  18160-3 0  9999
2 62903  81.9985 175.8563 0010584  32.7700 327.4174 14.94730838 59362
COSMOS 2583             
1 62904U 25026C   26068.82129982  .00003688  00000+0  33674-3 0  9999
2 62904  81.9959 175.8530 0006043  76.2523 283.9369 14.94821455 59356
